start=new Date('2021-12-29T00:00:00.000Z').valueOf();
sats=[{"FILE":"3254265","SITE":"AFETR","COUNTRY_CODE":"US","MEAN_MOTION_DDOT":"0.0000000000000","DECAY_DATE":null,"CLASSIFICATION_TYPE":"U","ARG_OF_PERICENTER":"100.2545","ELEMENT_SET_NO":"999","GP_ID":"192676749","CENTER_NAME":"EARTH","APOAPSIS":"548.250","EPHEMERIS_TYPE":"0","ECCENTRICITY":"0.00016340","OBJECT_ID":"2021-044BE","MEAN_MOTION":"15.06431174","BSTAR":"-0.00367430000000","MEAN_ELEMENT_THEORY":"SGP4","MEAN_ANOMALY":"95.4343","REV_AT_EPOCH":"358","PERIOD":"95.590","MEAN_MOTION_DOT":"-0.00054638","PERIAPSIS":"545.986","LAUNCH_DATE":"2021-05-26","REF_FRAME":"TEME","OBJECT_TYPE":"PAYLOAD","TLE_LINE2":"2 48690  53.0540 118.0025 0001634 100.2545  95.4343 15.06431174  3580","NORAD_CAT_ID":"48690","SEMIMAJOR_AXIS":"6925.253","TIME_SYSTEM":"UTC","OBJECT_NAME":"STARLINK-2740","RA_OF_ASC_NODE":"118.0025","TLE_LINE1":"1 48690U 21044BE  21362.91667824 -.00054638  00000-0 -36743-2 0  9998","RCS_SIZE":"LARGE","INCLINATION":"53.0540","EPOCH":"2021-12-28T22:00:00.999936"},{"MEAN_ANOMALY":"258.6786","REV_AT_EPOCH":"357","PERIAPSIS":"546.392","LAUNCH_DATE":"2021-05-26","PERIOD":"95.592","MEAN_MOTION_DOT":"-0.00019520","REF_FRAME":"TEME","OBJECT_TYPE":"PAYLOAD","TIME_SYSTEM":"UTC","OBJECT_NAME":"STARLINK-2750","NORAD_CAT_ID":"48691","TLE_LINE2":"2 48691  53.0578 112.9386 0001157  84.5089 258.6786 15.06406608  3579","SEMIMAJOR_AXIS":"6925.328","RA_OF_ASC_NODE":"112.9386","TLE_LINE1":"1 48691U 21044BF  21362.91667824 -.00019520  00000-0 -12949-2 0  9992","RCS_SIZE":"LARGE","INCLINATION":"53.0578","EPOCH":"2021-12-28T22:00:00.999936","SITE":"AFETR","FILE":"3254265","COUNTRY_CODE":"US","DECAY_DATE":null,"MEAN_MOTION_DDOT":"0.0000000000000","GP_ID":"192677493","CLASSIFICATION_TYPE":"U","ARG_OF_PERICENTER":"84.5089","ELEMENT_SET_NO":"999","CENTER_NAME":"EARTH","APOAPSIS":"547.995","EPHEMERIS_TYPE":"0","ECCENTRICITY":"0.00011570","MEAN_MOTION":"15.06406608","OBJECT_ID":"2021-044BF","BSTAR":"-0.00129490000000","MEAN_ELEMENT_THEORY":"SGP4"},{"INCLINATION":"53.0539","EPOCH":"2021-12-28T22:00:00.999936","NORAD_CAT_ID":"48692","TLE_LINE2":"2 48692  53.0539 113.0038 0001580 109.9476  18.3487 15.06414108  3589","SEMIMAJOR_AXIS":"6925.305","TIME_SYSTEM":"UTC","OBJECT_NAME":"STARLINK-2752","RA_OF_ASC_NODE":"113.0038","TLE_LINE1":"1 48692U 21044BG  21362.91667824 -.00014397  00000-0 -94920-3 0  9990","RCS_SIZE":"LARGE","PERIOD":"95.591","MEAN_MOTION_DOT":"-0.00014397","PERIAPSIS":"546.076","LAUNCH_DATE":"2021-05-26","REF_FRAME":"TEME","OBJECT_TYPE":"PAYLOAD","MEAN_ANOMALY":"18.3487","REV_AT_EPOCH":"358","ECCENTRICITY":"0.00015800","OBJECT_ID":"2021-044BG","MEAN_MOTION":"15.06414108","MEAN_ELEMENT_THEORY":"SGP4","BSTAR":"-0.00094920000000","CLASSIFICATION_TYPE":"U","ARG_OF_PERICENTER":"109.9476","ELEMENT_SET_NO":"999","GP_ID":"192677245","APOAPSIS":"548.265","CENTER_NAME":"EARTH","EPHEMERIS_TYPE":"0","MEAN_MOTION_DDOT":"0.0000000000000","DECAY_DATE":null,"SITE":"AFETR","FILE":"3254265","COUNTRY_CODE":"US"},{"COUNTRY_CODE":"US","FILE":"3254265","SITE":"AFETR","DECAY_DATE":null,"MEAN_MOTION_DDOT":"0.0000000000000","APOAPSIS":"548.075","CENTER_NAME":"EARTH","EPHEMERIS_TYPE":"0","GP_ID":"192676502","ARG_OF_PERICENTER":"95.0459","CLASSIFICATION_TYPE":"U","ELEMENT_SET_NO":"999","BSTAR":"-0.00398750000000","MEAN_ELEMENT_THEORY":"SGP4","ECCENTRICITY":"0.00013690","MEAN_MOTION":"15.06428148","OBJECT_ID":"2021-044BH","REV_AT_EPOCH":"358","MEAN_ANOMALY":"285.7764","REF_FRAME":"TEME","OBJECT_TYPE":"PAYLOAD","PERIAPSIS":"546.179","LAUNCH_DATE":"2021-05-26","PERIOD":"95.590","MEAN_MOTION_DOT":"-0.00059228","TLE_LINE1":"1 48693U 21044BH  21362.91667824 -.00059228  00000-0 -39875-2 0  9990","RA_OF_ASC_NODE":"118.0018","RCS_SIZE":"LARGE","OBJECT_NAME":"STARLINK-2618","TIME_SYSTEM":"UTC","SEMIMAJOR_AXIS":"6925.262","TLE_LINE2":"2 48693  53.0538 118.0018 0001369  95.0459 285.7764 15.06428148  3580","NORAD_CAT_ID":"48693","EPOCH":"2021-12-28T22:00:00.999936","INCLINATION":"53.0538"},{"CENTER_NAME":"EARTH","APOAPSIS":"548.070","EPHEMERIS_TYPE":"0","GP_ID":"192676253","CLASSIFICATION_TYPE":"U","ARG_OF_PERICENTER":"79.3191","ELEMENT_SET_NO":"999","BSTAR":"-0.00042605000000","MEAN_ELEMENT_THEORY":"SGP4","ECCENTRICITY":"0.00012800","MEAN_MOTION":"15.06409901","OBJECT_ID":"2021-044BJ","COUNTRY_CODE":"US","FILE":"3254265","SITE":"AFETR","DECAY_DATE":null,"MEAN_MOTION_DDOT":"0.0000000000000","TLE_LINE1":"1 48694U 21044BJ  21362.91667824 -.00006623  00000-0 -42605-3 0  9998","RA_OF_ASC_NODE":"123.0075","RCS_SIZE":"LARGE","OBJECT_NAME":"STARLINK-2748","TIME_SYSTEM":"UTC","TLE_LINE2":"2 48694  53.0532 123.0075 0001280  79.3191 108.8658 15.06409901  3385","SEMIMAJOR_AXIS":"6925.318","NORAD_CAT_ID":"48694","EPOCH":"2021-12-28T22:00:00.999936","INCLINATION":"53.0532","REV_AT_EPOCH":"338","MEAN_ANOMALY":"108.8658","REF_FRAME":"TEME","OBJECT_TYPE":"PAYLOAD","PERIAPSIS":"546.297","LAUNCH_DATE":"2021-05-26","PERIOD":"95.592","MEAN_MOTION_DOT":"-0.00006623"},{"OBJECT_NAME":"STARLINK-2616","TIME_SYSTEM":"UTC","TLE_LINE2":"2 48695  53.0535 123.0056 0001528  97.3841 355.9235 15.06403448  3583","NORAD_CAT_ID":"48695","SEMIMAJOR_AXIS":"6925.338","RCS_SIZE":"LARGE","TLE_LINE1":"1 48695U 21044BK  21362.91667824 -.00005011  00000-0 -31774-3 0  9994","RA_OF_ASC_NODE":"123.0056","INCLINATION":"53.0535","EPOCH":"2021-12-28T22:00:00.999936","MEAN_ANOMALY":"355.9235","REV_AT_EPOCH":"358","PERIAPSIS":"546.145","LAUNCH_DATE":"2021-05-26","MEAN_MOTION_DOT":"-0.00005011","PERIOD":"95.592","OBJECT_TYPE":"PAYLOAD","REF_FRAME":"TEME","GP_ID":"192676998","ELEMENT_SET_NO":"999","ARG_OF_PERICENTER":"97.3841","CLASSIFICATION_TYPE":"U","EPHEMERIS_TYPE":"0","APOAPSIS":"548.261","CENTER_NAME":"EARTH","OBJECT_ID":"2021-044BK","MEAN_MOTION":"15.06403448","ECCENTRICITY":"0.00015280","BSTAR":"-0.00031774000000","MEAN_ELEMENT_THEORY":"SGP4","SITE":"AFETR","FILE":"3254265","COUNTRY_CODE":"US","DECAY_DATE":null,"MEAN_MOTION_DDOT":"0.0000000000000"},{"COUNTRY_CODE":"US","FILE":"3254265","SITE":"AFETR","MEAN_MOTION_DDOT":"0.0000000000000","DECAY_DATE":null,"APOAPSIS":"548.432","CENTER_NAME":"EARTH","EPHEMERIS_TYPE":"0","ARG_OF_PERICENTER":"98.1540","CLASSIFICATION_TYPE":"U","ELEMENT_SET_NO":"999","GP_ID":"192677741","BSTAR":"0.00007148600000","MEAN_ELEMENT_THEORY":"SGP4","ECCENTRICITY":"0.00017640","OBJECT_ID":"2021-044BL","MEAN_MOTION":"15.06401193","REV_AT_EPOCH":"3324","MEAN_ANOMALY":"261.9649","REF_FRAME":"TEME","OBJECT_TYPE":"PAYLOAD","PERIOD":"95.592","MEAN_MOTION_DOT":"0.00000783","LAUNCH_DATE":"2021-05-26","PERIAPSIS":"545.988","TLE_LINE1":"1 48696U 21044BL  21362.82348080  .00000783  00000-0  71486-4 0  9999","RA_OF_ASC_NODE":"128.4295","RCS_SIZE":"LARGE","SEMIMAJOR_AXIS":"6925.345","TLE_LINE2":"2 48696  53.0570 128.4295 0001764  98.1540 261.9649 15.06401193 33240","NORAD_CAT_ID":"48696","TIME_SYSTEM":"UTC","OBJECT_NAME":"STARLINK-2753","EPOCH":"2021-12-28T19:45:48.741120","INCLINATION":"53.0570"},{"COUNTRY_CODE":"US","SITE":"AFETR","FILE":"3254265","DECAY_DATE":null,"MEAN_MOTION_DDOT":"0.0000000000000","EPHEMERIS_TYPE":"0","APOAPSIS":"548.343","CENTER_NAME":"EARTH","GP_ID":"192676005","ELEMENT_SET_NO":"999","CLASSIFICATION_TYPE":"U","ARG_OF_PERICENTER":"96.5984","BSTAR":"0.00006823900000","MEAN_ELEMENT_THEORY":"SGP4","MEAN_MOTION":"15.06397710","OBJECT_ID":"2021-044BM","ECCENTRICITY":"0.00016210","REV_AT_EPOCH":"3322","MEAN_ANOMALY":"263.5189","OBJECT_TYPE":"PAYLOAD","REF_FRAME":"TEME","LAUNCH_DATE":"2021-05-26","PERIAPSIS":"546.098","MEAN_MOTION_DOT":"0.00000735","PERIOD":"95.592","RCS_SIZE":"LARGE","RA_OF_ASC_NODE":"128.8796","TLE_LINE1":"1 48697U 21044BM  21362.72395524  .00000735  00000-0  68239-4 0  9993","TIME_SYSTEM":"UTC","OBJECT_NAME":"STARLINK-2715","SEMIMAJOR_AXIS":"6925.356","TLE_LINE2":"2 48697  53.0564 128.8796 0001621  96.5984 263.5189 15.06397710 33224","NORAD_CAT_ID":"48697","EPOCH":"2021-12-28T17:22:29.732736","INCLINATION":"53.0564"},{"MEAN_ANOMALY":"335.9463","REV_AT_EPOCH":"359","MEAN_MOTION_DOT":"-0.00055610","PERIOD":"94.986","PERIAPSIS":"514.944","LAUNCH_DATE":"2021-06-30","OBJECT_TYPE":"PAYLOAD","REF_FRAME":"TEME","TLE_LINE2":"2 48879  97.5258 129.9966 0004287  47.8783 335.9463 15.16015036  3592","NORAD_CAT_ID":"48879","SEMIMAJOR_AXIS":"6896.036","OBJECT_NAME":"STARLINK-3003","TIME_SYSTEM":"UTC","RCS_SIZE":"LARGE","TLE_LINE1":"1 48879U 21059A   21362.91667824 -.00055610  00000-0 -29145-2 0  9992","RA_OF_ASC_NODE":"129.9966","INCLINATION":"97.5258","EPOCH":"2021-12-28T22:00:00.999936","FILE":"3254265","SITE":"AFETR","COUNTRY_CODE":"US","MEAN_MOTION_DDOT":"0.0000000000000","DECAY_DATE":null,"ELEMENT_SET_NO":"999","CLASSIFICATION_TYPE":"U","ARG_OF_PERICENTER":"47.8783","GP_ID":"192676770","EPHEMERIS_TYPE":"0","APOAPSIS":"520.857","CENTER_NAME":"EARTH","OBJECT_ID":"2021-059A","MEAN_MOTION":"15.16015036","ECCENTRICITY":"0.00042870","MEAN_ELEMENT_THEORY":"SGP4","BSTAR":"-0.00291450000000"},{"BSTAR":"-0.00303720000000","MEAN_ELEMENT_THEORY":"SGP4","MEAN_MOTION":"15.16016617","OBJECT_ID":"2021-059B","ECCENTRICITY":"0.00034110","EPHEMERIS_TYPE":"0","APOAPSIS":"520.248","CENTER_NAME":"EARTH","GP_ID":"192677514","ELEMENT_SET_NO":"999","ARG_OF_PERICENTER":"151.7484","CLASSIFICATION_TYPE":"U","DECAY_DATE":null,"MEAN_MOTION_DDOT":"0.0000000000000","COUNTRY_CODE":"US","FILE":"3254265","SITE":"AFETR","EPOCH":"2021-12-28T22:00:00.999936","INCLINATION":"97.5258","RCS_SIZE":"LARGE","TLE_LINE1":"1 48880U 21059B   21362.91667824 -.00057927  00000-0 -30372-2 0  9991","RA_OF_ASC_NODE":"130.0048","OBJECT_NAME":"STARLINK-3004","TIME_SYSTEM":"UTC","TLE_LINE2":"2 48880  97.5258 130.0048 0003411 151.7484 251.6037 15.16016617  3596","SEMIMAJOR_AXIS":"6896.031","NORAD_CAT_ID":"48880","OBJECT_TYPE":"PAYLOAD","REF_FRAME":"TEME","PERIAPSIS":"515.544","LAUNCH_DATE":"2021-06-30","MEAN_MOTION_DOT":"-0.00057927","PERIOD":"94.986","REV_AT_EPOCH":"359","MEAN_ANOMALY":"251.6037"}];
